COSMOS 2529 [GLONASS-M] 
1 43687U 18086A   26058.37448306  .00000008  00000+0  00000+0 0  9993
2 43687  64.2955 196.2992 0007959 253.0448 106.8346  2.13101880 56941
COSMOS 2534 [GLONASS-M] 
1 44299U 19030A   26063.82267120  .00000008  00000+0  00000+0 0  9992
2 44299  64.3687 196.1275 0009608 279.9650  74.0554  2.13102294 52697
COSMOS 2544 [GLONASS-M] 
1 44850U 19088A   26063.38403184  .00000015  00000+0  00000+0 0  9999
2 44850  65.5058  77.2275 0015759 259.6012 100.2648  2.13101811 48487
COSMOS 2545 [GLONASS-M] 
1 45358U 20018A   26063.11034895 -.00000050  00000+0  00000+0 0  9998
2 45358  64.4178 316.1141 0008224 250.2940 109.6781  2.13102333 46428
COSMOS 2547 [GLONASS-K] 
1 46805U 20075A   26063.76811950  .00000008  00000+0  00000+0 0  9997
2 46805  64.5996 195.9570 0006753 229.6375 130.2687  2.13100113 41683
COSMOS 2557 [GLONASS-K] 
1 52984U 22075A   26062.52543027 -.00000052  00000+0  00000+0 0  9994
2 52984  64.3599 318.2098 0011629 283.5045  76.4245  2.13101658 28468
COSMOS 2559 [GLONASS-K] 
1 54031U 22130A   26063.28332775 -.00000055  00000+0  00000+0 0  9994
2 54031  64.3319 318.2699 0010607 181.5346 178.5209  2.13101260 26456
COSMOS 2564 [GLONASS-M] 
1 54377U 22161A   26063.59609659  .00000006  00000+0  00000+0 0  9998
2 54377  64.7416 196.1804 0009430 209.7987 150.1119  2.13101950 25404
COSMOS 2569 [GLONASS-K2]
1 57517U 23114A   26063.60906547  .00000011  00000+0  00000+0 0  9990
2 57517  65.2420  76.1460 0012899 291.6250  68.2783  2.13103963 20031
COSMOS 2584 [GLONASS-K2]
1 63130U 25042A   26059.74188024  .00000039  00000+0  00000+0 0  9992
2 63130  65.0213  76.4877 0007822 236.2440 123.7373  2.13103267  7739
COSMOS 2596 [GLONASS-K1]
1 65590U 25206B   26062.63521083 -.00000053  00000+0  00000+0 0  9991
2 65590  64.6947 318.6620 0012898 315.4778 221.7374  2.13100238  3663
